[{"OBJECT_NAME":"OBJECT T","OBJECT_ID":"2023-091T","EPOCH":"2026-03-09T23:10:06.810240","MEAN_MOTION":15.18017274,"ECCENTRICITY":0.00130499,"INCLINATION":97.5213,"RA_OF_ASC_NODE":128.2106,"ARG_OF_PERICENTER":96.0756,"MEAN_ANOMALY":264.1965,"EPHEMERIS_TYPE":0,"CLASSIFICATION_TYPE":"U","NORAD_CAT_ID":57183,"ELEMENT_SET_NO":999,"REV_AT_EPOCH":14891,"BSTAR":0.00032998025,"MEAN_MOTION_DOT":6.659e-5,"MEAN_MOTION_DDOT":0},{"OBJECT_NAME":"ION SCV-020","OBJECT_ID":"2025-135T","EPOCH":"2026-03-09T21:47:53.616480","MEAN_MOTION":15.20454047,"ECCENTRICITY":0.00028998,"INCLINATION":97.458,"RA_OF_ASC_NODE":184.8922,"ARG_OF_PERICENTER":140.0276,"MEAN_ANOMALY":220.1173,"EPHEMERIS_TYPE":0,"CLASSIFICATION_TYPE":"U","NORAD_CAT_ID":64545,"ELEMENT_SET_NO":999,"REV_AT_EPOCH":3976,"BSTAR":0.00023326396,"MEAN_MOTION_DOT":5.022e-5,"MEAN_MOTION_DDOT":0}]
